[
  {
    "OBJECT_NAME": "STARLINK-11730 [DTC]",
    "OBJECT_ID": "25107L",
    "EPOCH": "2025-11-11T02:26:04.789248",
    "MEAN_MOTION": 15.70922182,
    "ECCENTRICITY": 0.0001084,
    "INCLINATION": 42.9998,
    "RA_OF_ASC_NODE": 93.3612,
    "ARG_OF_PERICENTER": 354.1924,
    "MEAN_ANOMALY": 5.8931,
    "EPHEMERIS_TYPE": 0,
    "CLASSIFICATION_TYPE": "U",
    "NORAD_CAT_ID": 64074,
    "ELEMENT_SET_NO": 999,
    "REV_AT_EPOCH": 2864,
    "BSTAR": 0.0027977999999999996,
    "MEAN_MOTION_DOT": 0.00376607,
    "MEAN_MOTION_DDOT": 0.0,
    "TLE_LINE1": "1 64074U 25107L   25315.10144432  .00376607  00000+0  27978-2 0  9994",
    "TLE_LINE2": "2 64074  42.9998  93.3612 0001084 354.1924   5.8931 15.70922182 28642",
    "COMMENT": "Grouped by shell and plane from TLE"
  },
  {
    "OBJECT_NAME": "STARLINK-11723 [DTC]",
    "OBJECT_ID": "25107M",
    "EPOCH": "2025-11-11T00:00:02.999808",
    "MEAN_MOTION": 15.70895725,
    "ECCENTRICITY": 0.0001848,
    "INCLINATION": 42.9997,
    "RA_OF_ASC_NODE": 93.7484,
    "ARG_OF_PERICENTER": 273.614,
    "MEAN_ANOMALY": 322.5141,
    "EPHEMERIS_TYPE": 0,
    "CLASSIFICATION_TYPE": "U",
    "NORAD_CAT_ID": 64075,
    "ELEMENT_SET_NO": 999,
    "REV_AT_EPOCH": 569,
    "BSTAR": 0.0,
    "MEAN_MOTION_DOT": -0.00127017,
    "MEAN_MOTION_DDOT": 0.0,
    "TLE_LINE1": "1 64075U 25107M   25315.00003472 -.00127017  00000+0 -99913-3 0  9992",
    "TLE_LINE2": "2 64075  42.9997  93.7484 0001848 273.6140 322.5141 15.70895725  5690",
    "COMMENT": "Grouped by shell and plane from TLE"
  },
  {
    "OBJECT_NAME": "STARLINK-11715 [DTC]",
    "OBJECT_ID": "25107N",
    "EPOCH": "2025-11-10T17:54:44.897472",
    "MEAN_MOTION": 15.70925496,
    "ECCENTRICITY": 0.0002422,
    "INCLINATION": 43.0014,
    "RA_OF_ASC_NODE": 94.9789,
    "ARG_OF_PERICENTER": 289.4795,
    "MEAN_ANOMALY": 70.5811,
    "EPHEMERIS_TYPE": 0,
    "CLASSIFICATION_TYPE": "U",
    "NORAD_CAT_ID": 64076,
    "ELEMENT_SET_NO": 999,
    "REV_AT_EPOCH": 2859,
    "BSTAR": 0.0017931,
    "MEAN_MOTION_DOT": 0.00237169,
    "MEAN_MOTION_DDOT": 0.0,
    "TLE_LINE1": "1 64076U 25107N   25314.74635298  .00237169  00000+0  17931-2 0  9997",
    "TLE_LINE2": "2 64076  43.0014  94.9789 0002422 289.4795  70.5811 15.70925496 28591",
    "COMMENT": "Grouped by shell and plane from TLE"
  }
]